{"type": "FeatureCollection", "features": [ {"type": "Feature", "properties": {"norad_id": 33728, "name": "FENGYUN 1C DEB", "group": "fengyun-1c-debris", "lat": 36.887160916363406, "lon": 51.66278494325179, "alt_km": 655.9070804939383, "timestamp": "2025-12-26T15:29:39.726442+00:00", "meta": {"OBJECT_NAME": "FENGYUN 1C DEB", "OBJECT_ID": "1999-025DHR", "EPOCH": "2025-12-25T23:14:09.191616", "MEAN_MOTION": 14.92793785, "ECCENTRICITY": 0.0148096, "INCLINATION": 98.9768, "RA_OF_ASC_NODE": 57.7038, "ARG_OF_PERICENTER": 172.5205, "MEAN_ANOMALY": 187.8269, "EPHEMERIS_TYPE": 0, "CLASSIFICATION_TYPE": "U", "NORAD_CAT_ID": 33728, "ELEMENT_SET_NO": 999, "REV_AT_EPOCH": 98497, "BSTAR": 0.00052949, "MEAN_MOTION_DOT": 6.703e-05, "MEAN_MOTION_DDOT": 0}, "tle": {"line1": "1 33728U 99025DHR 25359.96816194  .00006703  00000+0  52949-3 0  9993", "line2": "2 33728  98.9768  57.7038 0148096 172.5205 187.8269 14.92793785984975"}}, "geometry": {"type": "Point", "coordinates": [51.66278494325179, 36.887160916363406]}}, {"type": "Feature", "properties": {"norad_id": 33730, "name": "FENGYUN 1C DEB", "group": "fengyun-1c-debris", "lat": -65.83858255929317, "lon": 80.5755351944934, "alt_km": 666.0266991638991, "timestamp": "2025-12-26T15:29:39.726453+00:00", "meta": {"OBJECT_NAME": "FENGYUN 1C DEB", "OBJECT_ID": "1999-025DHT", "EPOCH": "2025-12-17T10:18:00.572256", "MEAN_MOTION": 14.63540792, "ECCENTRICITY": 0.00393712, "INCLINATION": 99.0546, "RA_OF_ASC_NODE": 49.6389, "ARG_OF_PERICENTER": 356.5197, "MEAN_ANOMALY": 3.5723, "EPHEMERIS_TYPE": 0, "CLASSIFICATION_TYPE": "U", "NORAD_CAT_ID": 33730, "ELEMENT_SET_NO": 999, "REV_AT_EPOCH": 95748, "BSTAR": 0.0011805307, "MEAN_MOTION_DOT": 6.139e-05, "MEAN_MOTION_DDOT": 0}, "tle": {"line1": "1 33730U 99025DHT 25351.42917329  .00006139  00000+0  11805-2 0  9999", "line2": "2 33730  99.0546  49.6389 0039371 356.5197   3.5723 14.63540792957483"}}, "geometry": {"type": "Point", "coordinates": [80.5755351944934, -65.83858255929317]}}, {"type": "Feature", "properties": {"norad_id": 33731, "name": "FENGYUN 1C DEB", "group": "fengyun-1c-debris", "lat": -9.544657690355125, "lon": 24.80234882954793, "alt_km": 830.7927881047854, "timestamp": "2025-12-26T15:29:39.726462+00:00", "meta": {"OBJECT_NAME": "FENGYUN 1C DEB", "OBJECT_ID": "1999-025DHU", "EPOCH": "2025-12-23T18:42:18.711072", "MEAN_MOTION": 13.95379717, "ECCENTRICITY": 0.012845, "INCLINATION": 99.4443, "RA_OF_ASC_NODE": 20.2634, "ARG_OF_PERICENTER": 26.0646, "MEAN_ANOMALY": 334.6908, "EPHEMERIS_TYPE": 0, "CLASSIFICATION_TYPE": "U", "NORAD_CAT_ID": 33731, "ELEMENT_SET_NO": 999, "REV_AT_EPOCH": 90603, "BSTAR": 0.0015134973, "MEAN_MOTION_DOT": 2.151e-05, "MEAN_MOTION_DDOT": 0}, "tle": {"line1": "1 33731U 99025DHU 25357.77938323  .00002151  00000+0  15135-2 0  9991", "line2": "2 33731  99.4443  20.2634 0128450  26.0646 334.6908 13.95379717906036"}}, "geometry": {"type": "Point", "coordinates": [24.80234882954793, -9.544657690355125]}}, {"type": "Feature", "properties": {"norad_id": 33733, "name": "FENGYUN 1C DEB", "group": "fengyun-1c-debris", "lat": -42.74061781215231, "lon": 95.14400484521893, "alt_km": 850.7040474627975, "timestamp": "2025-12-26T15:29:39.726473+00:00", "meta": {"OBJECT_NAME": "FENGYUN 1C DEB", "OBJECT_ID": "1999-025DHW", "EPOCH": "2025-12-25T04:36:42.103008", "MEAN_MOTION": 14.31233871, "ECCENTRICITY": 0.00793833, "INCLINATION": 99.0988, "RA_OF_ASC_NODE": 85.1062, "ARG_OF_PERICENTER": 135.2874, "MEAN_ANOMALY": 256.825, "EPHEMERIS_TYPE": 0, "CLASSIFICATION_TYPE": "U", "NORAD_CAT_ID": 33733, "ELEMENT_SET_NO": 999, "REV_AT_EPOCH": 90626, "BSTAR": 0.0035456386, "MEAN_MOTION_DOT": 9.667e-05, "MEAN_MOTION_DDOT": 0}, "tle": {"line1": "1 33733U 99025DHW 25359.19215397  .00009667  00000+0  35456-2 0  9997", "line2": "2 33733  99.0988  85.1062 0079383 135.2874 256.8250 14.31233871906260"}}, "geometry": {"type": "Point", "coordinates": [95.14400484521893, -42.74061781215231]}}, {"type": "Feature", "properties": {"norad_id": 33737, "name": "FENGYUN 1C DEB", "group": "fengyun-1c-debris", "lat": -3.963435844258053, "lon": 12.822292286481035, "alt_km": 838.849113818962, "timestamp": "2025-12-26T15:29:39.726483+00:00", "meta": {"OBJECT_NAME": "FENGYUN 1C DEB", "OBJECT_ID": "1999-025DJA", "EPOCH": "2025-12-26T01:30:37.099296", "MEAN_MOTION": 14.03053946, "ECCENTRICITY": 0.01283049, "INCLINATION": 98.339, "RA_OF_ASC_NODE": 192.8704, "ARG_OF_PERICENTER": 245.3175, "MEAN_ANOMALY": 238.4228, "EPHEMERIS_TYPE": 0, "CLASSIFICATION_TYPE": "U", "NORAD_CAT_ID": 33737, "ELEMENT_SET_NO": 999, "REV_AT_EPOCH": 88927, "BSTAR": 0.0013634083, "MEAN_MOTION_DOT": 2.239e-05, "MEAN_MOTION_DDOT": 0}, "tle": {"line1": "1 33737U 99025DJA 25360.06292939  .00002239  00000+0  13634-2 0  9998", "line2": "2 33737  98.3390 192.8704 0128304 245.3175 238.4228 14.03053946889271"}}, "geometry": {"type": "Point", "coordinates": [12.822292286481035, -3.963435844258053]}}, {"type": "Feature", "properties": {"norad_id": 33738, "name": "FENGYUN 1C DEB", "group": "fengyun-1c-debris", "lat": -68.1550677283824, "lon": 84.38416731593463, "alt_km": 820.7092865397317, "timestamp": "2025-12-26T15:29:39.726493+00:00", "meta": {"OBJECT_NAME": "FENGYUN 1C DEB", "OBJECT_ID": "1999-025DJB", "EPOCH": "2025-12-24T23:29:13.428096", "MEAN_MOTION": 13.99552043, "ECCENTRICITY": 0.018443, "INCLINATION": 99.1502, "RA_OF_ASC_NODE": 59.0114, "ARG_OF_PERICENTER": 347.7963, "MEAN_ANOMALY": 189.5745, "EPHEMERIS_TYPE": 0, "CLASSIFICATION_TYPE": "U", "NORAD_CAT_ID": 33738, "ELEMENT_SET_NO": 999, "REV_AT_EPOCH": 89407, "BSTAR": 0.0005531895, "MEAN_MOTION_DOT": 8.89e-06, "MEAN_MOTION_DDOT": 0}, "tle": {"line1": "1 33738U 99025DJB 25358.97862764  .00000889  00000+0  55319-3 0  9991", "line2": "2 33738  99.1502  59.0114 0184430 347.7963 189.5745 13.99552043894079"}}, "geometry": {"type": "Point", "coordinates": [84.38416731593463, -68.1550677283824]}}, {"type": "Feature", "properties": {"norad_id": 33740, "name": "FENGYUN 1C DEB", "group": "fengyun-1c-debris", "lat": -66.90900913383814, "lon": 172.11549254188574, "alt_km": 860.0085662614019, "timestamp": "2025-12-26T15:29:39.726504+00:00", "meta": {"OBJECT_NAME": "FENGYUN 1C DEB", "OBJECT_ID": "1999-025DJD", "EPOCH": "2025-12-23T18:18:38.373696", "MEAN_MOTION": 14.12328382, "ECCENTRICITY": 0.00022971, "INCLINATION": 98.6867, "RA_OF_ASC_NODE": 10.3348, "ARG_OF_PERICENTER": 110.3386, "MEAN_ANOMALY": 249.8034, "EPHEMERIS_TYPE": 0, "CLASSIFICATION_TYPE": "U", "NORAD_CAT_ID": 33740, "ELEMENT_SET_NO": 999, "REV_AT_EPOCH": 90302, "BSTAR": 0.00013863115, "MEAN_MOTION_DOT": 2.13e-06, "MEAN_MOTION_DDOT": 0}, "tle": {"line1": "1 33740U 99025DJD 25357.76294414  .00000213  00000+0  13863-3 0  9990", "line2": "2 33740  98.6867  10.3348 0002297 110.3386 249.8034 14.12328382903022"}}, "geometry": {"type": "Point", "coordinates": [172.11549254188574, -66.90900913383814]}}, {"type": "Feature", "properties": {"norad_id": 33741, "name": "FENGYUN 1C DEB", "group": "fengyun-1c-debris", "lat": 14.1370147980156, "lon": 95.75421981577215, "alt_km": 901.2606226274274, "timestamp": "2025-12-26T15:29:39.726514+00:00", "meta": {"OBJECT_NAME": "FENGYUN 1C DEB", "OBJECT_ID": "1999-025DJE", "EPOCH": "2025-12-25T13:10:32.197728", "MEAN_MOTION": 14.09915746, "ECCENTRICITY": 0.0128978, "INCLINATION": 98.5644, "RA_OF_ASC_NODE": 272.5349, "ARG_OF_PERICENTER": 52.1735, "MEAN_ANOMALY": 309.1029, "EPHEMERIS_TYPE": 0, "CLASSIFICATION_TYPE": "U", "NORAD_CAT_ID": 33741, "ELEMENT_SET_NO": 999, "REV_AT_EPOCH": 57043, "BSTAR": 0.0026249, "MEAN_MOTION_DOT": 4.956e-05, "MEAN_MOTION_DDOT": 0}, "tle": {"line1": "1 33741U 99025DJE 25359.54898377  .00004956  00000+0  26249-2 0  9996", "line2": "2 33741  98.5644 272.5349 0128978  52.1735 309.1029 14.09915746570435"}}, "geometry": {"type": "Point", "coordinates": [95.75421981577215, 14.1370147980156]}}, {"type": "Feature", "properties": {"norad_id": 33745, "name": "FENGYUN 1C DEB", "group": "fengyun-1c-debris", "lat": 67.6250840427407, "lon": 15.32359777330852, "alt_km": 846.7746558063154, "timestamp": "2025-12-26T15:29:39.726524+00:00", "meta": {"OBJECT_NAME": "FENGYUN 1C DEB", "OBJECT_ID": "1999-025DJJ", "EPOCH": "2025-12-23T01:03:53.032320", "MEAN_MOTION": 14.22376076, "ECCENTRICITY": 0.00546159, "INCLINATION": 99.1138, "RA_OF_ASC_NODE": 34.553, "ARG_OF_PERICENTER": 236.8105, "MEAN_ANOMALY": 122.7827, "EPHEMERIS_TYPE": 0, "CLASSIFICATION_TYPE": "U", "NORAD_CAT_ID": 33745, "ELEMENT_SET_NO": 999, "REV_AT_EPOCH": 66148, "BSTAR": 0.0013268717, "MEAN_MOTION_DOT": 2.951e-05, "MEAN_MOTION_DDOT": 0}, "tle": {"line1": "1 33745U 99025DJJ 25357.04436380  .00002951  00000+0  13269-2 0  9996", "line2": "2 33745  99.1138  34.5530 0054615 236.8105 122.7827 14.22376076661483"}}, "geometry": {"type": "Point", "coordinates": [15.32359777330852, 67.6250840427407]}}, {"type": "Feature", "properties": {"norad_id": 33747, "name": "FENGYUN 1C DEB", "group": "fengyun-1c-debris", "lat": 75.5735699706207, "lon": -45.83577661262616, "alt_km": 811.7899925806487, "timestamp": "2025-12-26T15:29:39.726534+00:00", "meta": {"OBJECT_NAME": "FENGYUN 1C DEB", "OBJECT_ID": "1999-025DJL", "EPOCH": "2025-12-25T00:03:06.904800", "MEAN_MOTION": 14.17556919, "ECCENTRICITY": 0.00908401, "INCLINATION": 99.0948, "RA_OF_ASC_NODE": 93.9706, "ARG_OF_PERICENTER": 183.5383, "MEAN_ANOMALY": 176.5159, "EPHEMERIS_TYPE": 0, "CLASSIFICATION_TYPE": "U", "NORAD_CAT_ID": 33747, "ELEMENT_SET_NO": 999, "REV_AT_EPOCH": 90306, "BSTAR": 0.0026785153, "MEAN_MOTION_DOT": 5.622e-05, "MEAN_MOTION_DDOT": 0}, "tle": {"line1": "1 33747U 99025DJL 25359.00216325  .00005622  00000+0  26785-2 0  9996", "line2": "2 33747  99.0948  93.9706 0090840 183.5383 176.5159 14.17556919903061"}}, "geometry": {"type": "Point", "coordinates": [-45.83577661262616, 75.5735699706207]}}]}